{"type":"FeatureCollection","features":[{"type":"Feature","properties":{},"geometry":{"coordinates":[[[15.860935892380951,4.948585430160762],[15.860307415500358,4.939889064206724],[15.866243030480774,4.930496860842524],[15.872876953105589,4.93947163577063],[15.875530522155543,4.938775921124574],[15.875111537569467,4.9322361677892275],[15.879790198788754,4.932305739972691],[15.885935306062663,4.936201770590429],[15.89089329034033,4.933627610066992],[15.892499397923643,4.938219348882669],[15.89298821327452,4.945941746992304],[15.891591597985695,4.950881251712545],[15.881675629429452,4.954707603255116],[15.87224847622602,4.953872764807002],[15.860935892380951,4.948585430160762]]],"type":"Polygon"},"id":1}]}
