{"type":"FeatureCollection","features":[{"type":"Feature","properties":{"group_id":11905,"task_id":603517,"tile_x":48022,"tile_y":27374,"tile_z":16,"reference":1,"screen":1,"id":1},"geometry":{"coordinates":[[[83.792724609375,28.3914003758178],[83.7982177734375,28.3914003758178],[83.7982177734375,28.3865678196572],[83.792724609375,28.3865678196572],[83.792724609375,28.3914003758178]]],"type":"Polygon"},"id":0},{"type":"Feature","properties":{"group_id":11905,"task_id":603518,"tile_x":48022,"tile_y":27375,"tile_z":16,"reference":1,"screen":1,"id":2},"geometry":{"coordinates":[[[83.792724609375,28.3865678196572],[83.7982177734375,28.3865678196572],[83.7982177734375,28.3817350432231],[83.792724609375,28.3817350432231],[83.792724609375,28.3865678196572]]],"type":"Polygon"}},{"type":"Feature","properties":{"group_id":11905,"task_id":603519,"tile_x":48022,"tile_y":27376,"tile_z":16,"reference":0,"screen":1,"id":3},"geometry":{"coordinates":[[[83.792724609375,28.3817350432231],[83.7982177734375,28.3817350432231],[83.7982177734375,28.3769020465398],[83.792724609375,28.3769020465398],[83.792724609375,28.3817350432231]]],"type":"Polygon"}},{"type":"Feature","properties":{"group_id":11905,"task_id":603520,"tile_x":48023,"tile_y":27374,"tile_z":16,"reference":2,"screen":1,"id":4},"geometry":{"coordinates":[[[83.7982177734375,28.3914003758178],[83.8037109375,28.3914003758178],[83.8037109375,28.3865678196572],[83.7982177734375,28.3865678196572],[83.7982177734375,28.3914003758178]]],"type":"Polygon"}},{"type":"Feature","properties":{"group_id":11905,"task_id":603521,"tile_x":48023,"tile_y":27375,"tile_z":16,"reference":1,"screen":1,"id":5},"geometry":{"coordinates":[[[83.7982177734375,28.3865678196572],[83.8037109375,28.3865678196572],[83.8037109375,28.3817350432231],[83.7982177734375,28.3817350432231],[83.7982177734375,28.3865678196572]]],"type":"Polygon"}},{"type":"Feature","properties":{"group_id":11905,"task_id":603522,"tile_x":48023,"tile_y":27376,"tile_z":16,"reference":2,"screen":1,"id":6},"geometry":{"coordinates":[[[83.7982177734375,28.3817350432231],[83.8037109375,28.3817350432231],[83.8037109375,28.3769020465398],[83.7982177734375,28.3769020465398],[83.7982177734375,28.3817350432231]]],"type":"Polygon"}},{"type":"Feature","properties":{"group_id":11905,"task_id":603529,"tile_x":48026,"tile_y":27374,"tile_z":16,"reference":1,"screen":2,"id":7},"geometry":{"coordinates":[[[83.814697265625,28.3914003758178],[83.8201904296875,28.3914003758178],[83.8201904296875,28.3865678196572],[83.814697265625,28.3865678196572],[83.814697265625,28.3914003758178]]],"type":"Polygon"}},{"type":"Feature","properties":{"group_id":11905,"task_id":603530,"tile_x":48026,"tile_y":27375,"tile_z":16,"reference":1,"screen":2,"id":8},"geometry":{"coordinates":[[[83.814697265625,28.3865678196572],[83.8201904296875,28.3865678196572],[83.8201904296875,28.3817350432231],[83.814697265625,28.3817350432231],[83.814697265625,28.3865678196572]]],"type":"Polygon"}},{"type":"Feature","properties":{"group_id":11905,"task_id":603531,"tile_x":48026,"tile_y":27376,"tile_z":16,"reference":0,"screen":2,"id":9},"geometry":{"coordinates":[[[83.814697265625,28.3817350432231],[83.8201904296875,28.3817350432231],[83.8201904296875,28.3769020465398],[83.814697265625,28.3769020465398],[83.814697265625,28.3817350432231]]],"type":"Polygon"}},{"type":"Feature","properties":{"group_id":11905,"task_id":603532,"tile_x":48027,"tile_y":27374,"tile_z":16,"reference":0,"screen":2,"id":10},"geometry":{"coordinates":[[[83.8201904296875,28.3914003758178],[83.82568359375,28.3914003758178],[83.82568359375,28.3865678196572],[83.8201904296875,28.3865678196572],[83.8201904296875,28.3914003758178]]],"type":"Polygon"}},{"type":"Feature","properties":{"group_id":11905,"task_id":603533,"tile_x":48027,"tile_y":27375,"tile_z":16,"reference":0,"screen":2,"id":11},"geometry":{"coordinates":[[[83.8201904296875,28.3865678196572],[83.82568359375,28.3865678196572],[83.82568359375,28.3817350432231],[83.8201904296875,28.3817350432231],[83.8201904296875,28.3865678196572]]],"type":"Polygon"}},{"type":"Feature","properties":{"group_id":11905,"task_id":603534,"tile_x":48027,"tile_y":27376,"tile_z":16,"reference":0,"screen":2,"id":12},"geometry":{"coordinates":[[[83.8201904296875,28.3817350432231],[83.82568359375,28.3817350432231],[83.82568359375,28.3769020465398],[83.8201904296875,28.3769020465398],[83.8201904296875,28.3817350432231]]],"type":"Polygon"}}]}
