{"type":"FeatureCollection","metadata":{"project_id":78},"features":[{"type":"Feature","geometry":{"type":"Point","coordinates":[14.418853,50.086067]},"properties":{"group_id":11868,"task_id":580711,"reference":1,"screen":2,"id":"2"}},{"type":"Feature","geometry":{"type":"Point","coordinates":[14.423032,50.08722]},"properties":{"group_id":11868,"task_id":580712,"reference":0,"screen":3,"id":"3"}},{"type":"Feature","geometry":{"type":"Point","coordinates":[14.428911,50.084701]},"properties":{"group_id":11868,"task_id":580713,"reference":1,"screen":4,"id":"4"}},{"type":"Feature","geometry":{"type":"Point","coordinates":[14.426465,50.087843]},"properties":{"group_id":11868,"task_id":580714,"reference":1,"screen":5,"id":"5"}},{"type":"Feature","geometry":{"type":"Point","coordinates":[14.425537,50.087172]},"properties":{"group_id":11868,"task_id":580715,"reference":1,"screen":6,"id":"6"}},{"type":"Feature","geometry":{"type":"Point","coordinates":[14.431019,50.084969]},"properties":{"group_id":11868,"task_id":580716,"reference":1,"screen":1,"id":"1"},"id":5}]}
