{
  "type": "FeatureCollection",
  "name": "hot_tm_2962.geojson",
  "crs": {
    "type": "name",
    "properties": {
      "name": "urn:ogc:def:crs:OGC:1.3:CRS84"
    }
  },
  "features": [
    {
      "type": "Feature",
      "properties": {
        "group_id": 3
      },
      "geometry": {
        "type": "Polygon",
        "coordinates": [
          [
            [
              33.2844543,
              -24.6432726,
              0.0
            ],
            [
              33.2872009,
              -24.6432726,
              0.0
            ],
            [
              33.2872009,
              -24.6395279,
              0.0
            ],
            [
              33.2844543,
              -24.6395279,
              0.0
            ],
            [
              33.2844543,
              -24.6432726,
              0.0
            ]
          ]
        ]
      }
    },
    {
      "type": "Feature",
      "properties": {
        "group_id": 4
      },
      "geometry": {
        "type": "Polygon",
        "coordinates": [
          [
            [
              33.2954407,
              -24.6407761,
              0.0
            ],
            [
              33.296814,
              -24.6407761,
              0.0
            ],
            [
              33.296814,
              -24.6395279,
              0.0
            ],
            [
              33.2954407,
              -24.6395279,
              0.0
            ],
            [
              33.2954407,
              -24.6407761,
              0.0
            ]
          ]
        ]
      }
    },
    {
      "type": "Feature",
      "properties": {
        "group_id": 12
      },
      "geometry": {
        "type": "Polygon",
        "coordinates": [
          [
            [
              33.4135437,
              -24.6557541,
              0.0
            ],
            [
              33.414917,
              -24.6557541,
              0.0
            ],
            [
              33.414917,
              -24.654506,
              0.0
            ],
            [
              33.4135437,
              -24.654506,
              0.0
            ],
            [
              33.4135437,
              -24.6557541,
              0.0
            ]
          ]
        ]
      }
    },
    {
      "type": "Feature",
      "properties": {
        "group_id": 24
      },
      "geometry": {
        "type": "Polygon",
        "coordinates": [
          [
            [
              33.4465027,
              -24.6570022,
              0.0
            ],
            [
              33.447876,
              -24.6570022,
              0.0
            ],
            [
              33.447876,
              -24.6557541,
              0.0
            ],
            [
              33.4465027,
              -24.6557541,
              0.0
            ],
            [
              33.4465027,
              -24.6570022,
              0.0
            ]
          ]
        ]
      }
    },
    {
      "type": "Feature",
      "properties": {
        "group_id": 2
      },
      "geometry": {
        "type": "Polygon",
        "coordinates": [
          [
            [
              33.2775879,
              -24.6594983,
              0.0
            ],
            [
              33.2789612,
              -24.6594983,
              0.0
            ],
            [
              33.2789612,
              -24.6582502,
              0.0
            ],
            [
              33.2775879,
              -24.6582502,
              0.0
            ],
            [
              33.2775879,
              -24.6594983,
              0.0
            ]
          ]
        ]
      }
    },
    {
      "type": "Feature",
      "properties": {
        "group_id": 10
      },
      "geometry": {
        "type": "Polygon",
        "coordinates": [
          [
            [
              33.4066772,
              -24.6607463,
              0.0
            ],
            [
              33.4080505,
              -24.6607463,
              0.0
            ],
            [
              33.4080505,
              -24.6594983,
              0.0
            ],
            [
              33.4066772,
              -24.6594983,
              0.0
            ],
            [
              33.4066772,
              -24.6607463,
              0.0
            ]
          ]
        ]
      }
    },
    {
      "type": "Feature",
      "properties": {
        "group_id": 53
      },
      "geometry": {
        "type": "Polygon",
        "coordinates": [
          [
            [
              33.5247803,
              -24.6594983,
              0.0
            ],
            [
              33.5261536,
              -24.6594983,
              0.0
            ],
            [
              33.5261536,
              -24.6582502,
              0.0
            ],
            [
              33.5247803,
              -24.6582502,
              0.0
            ],
            [
              33.5247803,
              -24.6594983,
              0.0
            ]
          ]
        ]
      }
    },
    {
      "type": "Feature",
      "properties": {
        "group_id": 7
      },
      "geometry": {
        "type": "Polygon",
        "coordinates": [
          [
            [
              33.3036804,
              -24.6632424,
              0.0
            ],
            [
              33.3050537,
              -24.6632424,
              0.0
            ],
            [
              33.3050537,
              -24.6619944,
              0.0
            ],
            [
              33.3036804,
              -24.6619944,
              0.0
            ],
            [
              33.3036804,
              -24.6632424,
              0.0
            ]
          ]
        ]
      }
    },
    {
      "type": "Feature",
      "properties": {
        "group_id": 8
      },
      "geometry": {
        "type": "Polygon",
        "coordinates": [
          [
            [
              33.3105469,
              -24.6632424,
              0.0
            ],
            [
              33.3119202,
              -24.6632424,
              0.0
            ],
            [
              33.3119202,
              -24.6619944,
              0.0
            ],
            [
              33.3105469,
              -24.6619944,
              0.0
            ],
            [
              33.3105469,
              -24.6632424,
              0.0
            ]
          ]
        ]
      }
    },
    {
      "type": "Feature",
      "properties": {
        "group_id": 81
      },
      "geometry": {
        "type": "Polygon",
        "coordinates": [
          [
            [
              33.5742188,
              -24.6732261,
              0.0
            ],
            [
              33.5852051,
              -24.6732261,
              0.0
            ],
            [
              33.5852051,
              -24.6669864,
              0.0
            ],
            [
              33.5742188,
              -24.6669864,
              0.0
            ],
            [
              33.5742188,
              -24.6732261,
              0.0
            ]
          ]
        ]
      }
    }
  ]
}