{
  "type": "FeatureCollection",
  "name": "yes_maybe_2962.geojson",
  "crs": {
    "type": "name",
    "properties": {
      "name": "urn:ogc:def:crs:OGC:1.3:CRS84"
    }
  },
  "features": [
    {
      "type": "Feature",
      "properties": {
        "id": 1
      },
      "geometry": {
        "type": "Polygon",
        "coordinates": [
          [
            [
              33.2720947,
              -24.6869524,
              0.0
            ],
            [
              33.2707214,
              -24.6869524,
              0.0
            ],
            [
              33.2707214,
              -24.6882002,
              0.0
            ],
            [
              33.2720947,
              -24.6882002,
              0.0
            ],
            [
              33.2720947,
              -24.6894479,
              0.0
            ],
            [
              33.273468,
              -24.6894479,
              0.0
            ],
            [
              33.273468,
              -24.6906957,
              0.0
            ],
            [
              33.2748413,
              -24.6906957,
              0.0
            ],
            [
              33.2762146,
              -24.6906957,
              0.0
            ],
            [
              33.2775879,
              -24.6906957,
              0.0
            ],
            [
              33.2775879,
              -24.6919434,
              0.0
            ],
            [
              33.2789612,
              -24.6919434,
              0.0
            ],
            [
              33.2789612,
              -24.6906957,
              0.0
            ],
            [
              33.2803345,
              -24.6906957,
              0.0
            ],
            [
              33.2803345,
              -24.6894479,
              0.0
            ],
            [
              33.2803345,
              -24.6882002,
              0.0
            ],
            [
              33.2789612,
              -24.6882002,
              0.0
            ],
            [
              33.2775879,
              -24.6882002,
              0.0
            ],
            [
              33.2762146,
              -24.6882002,
              0.0
            ],
            [
              33.2748413,
              -24.6882002,
              0.0
            ],
            [
              33.273468,
              -24.6882002,
              0.0
            ],
            [
              33.273468,
              -24.6869524,
              0.0
            ],
            [
              33.2720947,
              -24.6869524,
              0.0
            ]
          ]
        ]
      }
    },
    {
      "type": "Feature",
      "properties": {
        "id": 2
      },
      "geometry": {
        "type": "Polygon",
        "coordinates": [
          [
            [
              33.2817078,
              -24.6869524,
              0.0
            ],
            [
              33.2817078,
              -24.6882002,
              0.0
            ],
            [
              33.2817078,
              -24.6894479,
              0.0
            ],
            [
              33.2830811,
              -24.6894479,
              0.0
            ],
            [
              33.2830811,
              -24.6882002,
              0.0
            ],
            [
              33.2844543,
              -24.6882002,
              0.0
            ],
            [
              33.2844543,
              -24.6869524,
              0.0
            ],
            [
              33.2830811,
              -24.6869524,
              0.0
            ],
            [
              33.2817078,
              -24.6869524,
              0.0
            ]
          ]
        ]
      }
    },
    {
      "type": "Feature",
      "properties": {
        "id": 3
      },
      "geometry": {
        "type": "Polygon",
        "coordinates": [
          [
            [
              33.2858276,
              -24.6857046,
              0.0
            ],
            [
              33.2844543,
              -24.6857046,
              0.0
            ],
            [
              33.2844543,
              -24.6869524,
              0.0
            ],
            [
              33.2858276,
              -24.6869524,
              0.0
            ],
            [
              33.2858276,
              -24.6857046,
              0.0
            ]
          ]
        ]
      }
    },
    {
      "type": "Feature",
      "properties": {
        "id": 4
      },
      "geometry": {
        "type": "Polygon",
        "coordinates": [
          [
            [
              33.2707214,
              -24.6844568,
              0.0
            ],
            [
              33.2707214,
              -24.683209,
              0.0
            ],
            [
              33.2693481,
              -24.683209,
              0.0
            ],
            [
              33.2693481,
              -24.6844568,
              0.0
            ],
            [
              33.2693481,
              -24.6857046,
              0.0
            ],
            [
              33.2707214,
              -24.6857046,
              0.0
            ],
            [
              33.2707214,
              -24.6844568,
              0.0
            ]
          ]
        ]
      }
    },
    {
      "type": "Feature",
      "properties": {
        "id": 5
      },
      "geometry": {
        "type": "Polygon",
        "coordinates": [
          [
            [
              33.2872009,
              -24.6844568,
              0.0
            ],
            [
              33.2858276,
              -24.6844568,
              0.0
            ],
            [
              33.2858276,
              -24.6857046,
              0.0
            ],
            [
              33.2872009,
              -24.6857046,
              0.0
            ],
            [
              33.2872009,
              -24.6844568,
              0.0
            ]
          ]
        ]
      }
    },
    {
      "type": "Feature",
      "properties": {
        "id": 6
      },
      "geometry": {
        "type": "Polygon",
        "coordinates": [
          [
            [
              33.3187866,
              -24.6607463,
              0.0
            ],
            [
              33.3187866,
              -24.6619944,
              0.0
            ],
            [
              33.3201599,
              -24.6619944,
              0.0
            ],
            [
              33.3201599,
              -24.6632424,
              0.0
            ],
            [
              33.3215332,
              -24.6632424,
              0.0
            ],
            [
              33.3229065,
              -24.6632424,
              0.0
            ],
            [
              33.3229065,
              -24.6644904,
              0.0
            ],
            [
              33.3242798,
              -24.6644904,
              0.0
            ],
            [
              33.3256531,
              -24.6644904,
              0.0
            ],
            [
              33.3270264,
              -24.6644904,
              0.0
            ],
            [
              33.3270264,
              -24.6657384,
              0.0
            ],
            [
              33.3283997,
              -24.6657384,
              0.0
            ],
            [
              33.3283997,
              -24.6644904,
              0.0
            ],
            [
              33.3297729,
              -24.6644904,
              0.0
            ],
            [
              33.3297729,
              -24.6632424,
              0.0
            ],
            [
              33.3311462,
              -24.6632424,
              0.0
            ],
            [
              33.3325195,
              -24.6632424,
              0.0
            ],
            [
              33.3325195,
              -24.6644904,
              0.0
            ],
            [
              33.3338928,
              -24.6644904,
              0.0
            ],
            [
              33.3352661,
              -24.6644904,
              0.0
            ],
            [
              33.3352661,
              -24.6632424,
              0.0
            ],
            [
              33.3366394,
              -24.6632424,
              0.0
            ],
            [
              33.3366394,
              -24.6619944,
              0.0
            ],
            [
              33.3366394,
              -24.6607463,
              0.0
            ],
            [
              33.3352661,
              -24.6607463,
              0.0
            ],
            [
              33.3352661,
              -24.6594983,
              0.0
            ],
            [
              33.3366394,
              -24.6594983,
              0.0
            ],
            [
              33.3380127,
              -24.6594983,
              0.0
            ],
            [
              33.3380127,
              -24.6607463,
              0.0
            ],
            [
              33.339386,
              -24.6607463,
              0.0
            ],
            [
              33.339386,
              -24.6619944,
              0.0
            ],
            [
              33.3407593,
              -24.6619944,
              0.0
            ],
            [
              33.3421326,
              -24.6619944,
              0.0
            ],
            [
              33.3435059,
              -24.6619944,
              0.0
            ],
            [
              33.3435059,
              -24.6632424,
              0.0
            ],
            [
              33.3448792,
              -24.6632424,
              0.0
            ],
            [
              33.3448792,
              -24.6644904,
              0.0
            ],
            [
              33.3435059,
              -24.6644904,
              0.0
            ],
            [
              33.3435059,
              -24.6657384,
              0.0
            ],
            [
              33.3448792,
              -24.6657384,
              0.0
            ],
            [
              33.3462524,
              -24.6657384,
              0.0
            ],
            [
              33.3476257,
              -24.6657384,
              0.0
            ],
            [
              33.348999,
              -24.6657384,
              0.0
            ],
            [
              33.3503723,
              -24.6657384,
              0.0
            ],
            [
              33.3503723,
              -24.6669864,
              0.0
            ],
            [
              33.3517456,
              -24.6669864,
              0.0
            ],
            [
              33.3517456,
              -24.6657384,
              0.0
            ],
            [
              33.3531189,
              -24.6657384,
              0.0
            ],
            [
              33.3531189,
              -24.6644904,
              0.0
            ],
            [
              33.3531189,
              -24.6632424,
              0.0
            ],
            [
              33.3531189,
              -24.6619944,
              0.0
            ],
            [
              33.3517456,
              -24.6619944,
              0.0
            ],
            [
              33.3517456,
              -24.6607463,
              0.0
            ],
            [
              33.3503723,
              -24.6607463,
              0.0
            ],
            [
              33.348999,
              -24.6607463,
              0.0
            ],
            [
              33.348999,
              -24.6594983,
              0.0
            ],
            [
              33.348999,
              -24.6582502,
              0.0
            ],
            [
              33.3476257,
              -24.6582502,
              0.0
            ],
            [
              33.3462524,
              -24.6582502,
              0.0
            ],
            [
              33.3448792,
              -24.6582502,
              0.0
            ],
            [
              33.3435059,
              -24.6582502,
              0.0
            ],
            [
              33.3435059,
              -24.6570022,
              0.0
            ],
            [
              33.3421326,
              -24.6570022,
              0.0
            ],
            [
              33.3421326,
              -24.6557541,
              0.0
            ],
            [
              33.3421326,
              -24.654506,
              0.0
            ],
            [
              33.3421326,
              -24.6532579,
              0.0
            ],
            [
              33.3407593,
              -24.6532579,
              0.0
            ],
            [
              33.3407593,
              -24.6520098,
              0.0
            ],
            [
              33.339386,
              -24.6520098,
              0.0
            ],
            [
              33.3380127,
              -24.6520098,
              0.0
            ],
            [
              33.3366394,
              -24.6520098,
              0.0
            ],
            [
              33.3366394,
              -24.6507616,
              0.0
            ],
            [
              33.3352661,
              -24.6507616,
              0.0
            ],
            [
              33.3352661,
              -24.6495135,
              0.0
            ],
            [
              33.3338928,
              -24.6495135,
              0.0
            ],
            [
              33.3325195,
              -24.6495135,
              0.0
            ],
            [
              33.3311462,
              -24.6495135,
              0.0
            ],
            [
              33.3297729,
              -24.6495135,
              0.0
            ],
            [
              33.3283997,
              -24.6495135,
              0.0
            ],
            [
              33.3270264,
              -24.6495135,
              0.0
            ],
            [
              33.3270264,
              -24.6482653,
              0.0
            ],
            [
              33.3256531,
              -24.6482653,
              0.0
            ],
            [
              33.3256531,
              -24.6470172,
              0.0
            ],
            [
              33.3242798,
              -24.6470172,
              0.0
            ],
            [
              33.3229065,
              -24.6470172,
              0.0
            ],
            [
              33.3229065,
              -24.6482653,
              0.0
            ],
            [
              33.3215332,
              -24.6482653,
              0.0
            ],
            [
              33.3201599,
              -24.6482653,
              0.0
            ],
            [
              33.3187866,
              -24.6482653,
              0.0
            ],
            [
              33.3187866,
              -24.6470172,
              0.0
            ],
            [
              33.3174133,
              -24.6470172,
              0.0
            ],
            [
              33.3174133,
              -24.6482653,
              0.0
            ],
            [
              33.31604,
              -24.6482653,
              0.0
            ],
            [
              33.31604,
              -24.6470172,
              0.0
            ],
            [
              33.3146667,
              -24.6470172,
              0.0
            ],
            [
              33.3146667,
              -24.645769,
              0.0
            ],
            [
              33.3146667,
              -24.6445208,
              0.0
            ],
            [
              33.3132935,
              -24.6445208,
              0.0
            ],
            [
              33.3119202,
              -24.6445208,
              0.0
            ],
            [
              33.3119202,
              -24.6432726,
              0.0
            ],
            [
              33.3119202,
              -24.6420244,
              0.0
            ],
            [
              33.3105469,
              -24.6420244,
              0.0
            ],
            [
              33.3105469,
              -24.6407761,
              0.0
            ],
            [
              33.3105469,
              -24.6395279,
              0.0
            ],
            [
              33.3091736,
              -24.6395279,
              0.0
            ],
            [
              33.3078003,
              -24.6395279,
              0.0
            ],
            [
              33.306427,
              -24.6395279,
              0.0
            ],
            [
              33.3050537,
              -24.6395279,
              0.0
            ],
            [
              33.3036804,
              -24.6395279,
              0.0
            ],
            [
              33.3023071,
              -24.6395279,
              0.0
            ],
            [
              33.3009338,
              -24.6395279,
              0.0
            ],
            [
              33.2995605,
              -24.6395279,
              0.0
            ],
            [
              33.2995605,
              -24.6407761,
              0.0
            ],
            [
              33.3009338,
              -24.6407761,
              0.0
            ],
            [
              33.3009338,
              -24.6420244,
              0.0
            ],
            [
              33.2995605,
              -24.6420244,
              0.0
            ],
            [
              33.2995605,
              -24.6432726,
              0.0
            ],
            [
              33.2995605,
              -24.6445208,
              0.0
            ],
            [
              33.2981873,
              -24.6445208,
              0.0
            ],
            [
              33.2981873,
              -24.645769,
              0.0
            ],
            [
              33.2981873,
              -24.6470172,
              0.0
            ],
            [
              33.2995605,
              -24.6470172,
              0.0
            ],
            [
              33.3009338,
              -24.6470172,
              0.0
            ],
            [
              33.3023071,
              -24.6470172,
              0.0
            ],
            [
              33.3023071,
              -24.6482653,
              0.0
            ],
            [
              33.3036804,
              -24.6482653,
              0.0
            ],
            [
              33.3050537,
              -24.6482653,
              0.0
            ],
            [
              33.3050537,
              -24.6495135,
              0.0
            ],
            [
              33.306427,
              -24.6495135,
              0.0
            ],
            [
              33.306427,
              -24.6507616,
              0.0
            ],
            [
              33.3078003,
              -24.6507616,
              0.0
            ],
            [
              33.3078003,
              -24.6520098,
              0.0
            ],
            [
              33.3078003,
              -24.6532579,
              0.0
            ],
            [
              33.3091736,
              -24.6532579,
              0.0
            ],
            [
              33.3105469,
              -24.6532579,
              0.0
            ],
            [
              33.3105469,
              -24.654506,
              0.0
            ],
            [
              33.3119202,
              -24.654506,
              0.0
            ],
            [
              33.3132935,
              -24.654506,
              0.0
            ],
            [
              33.3132935,
              -24.6557541,
              0.0
            ],
            [
              33.3132935,
              -24.6570022,
              0.0
            ],
            [
              33.3146667,
              -24.6570022,
              0.0
            ],
            [
              33.3146667,
              -24.6582502,
              0.0
            ],
            [
              33.31604,
              -24.6582502,
              0.0
            ],
            [
              33.3174133,
              -24.6582502,
              0.0
            ],
            [
              33.3174133,
              -24.6594983,
              0.0
            ],
            [
              33.3174133,
              -24.6607463,
              0.0
            ],
            [
              33.3187866,
              -24.6607463,
              0.0
            ]
          ]
        ]
      }
    },
    {
      "type": "Feature",
      "properties": {
        "id": 7
      },
      "geometry": {
        "type": "Polygon",
        "coordinates": [
          [
            [
              33.3119202,
              -24.6619944,
              0.0
            ],
            [
              33.3105469,
              -24.6619944,
              0.0
            ],
            [
              33.3105469,
              -24.6632424,
              0.0
            ],
            [
              33.3119202,
              -24.6632424,
              0.0
            ],
            [
              33.3119202,
              -24.6619944,
              0.0
            ]
          ]
        ]
      }
    },
    {
      "type": "Feature",
      "properties": {
        "id": 8
      },
      "geometry": {
        "type": "Polygon",
        "coordinates": [
          [
            [
              33.3050537,
              -24.6619944,
              0.0
            ],
            [
              33.3036804,
              -24.6619944,
              0.0
            ],
            [
              33.3036804,
              -24.6632424,
              0.0
            ],
            [
              33.3050537,
              -24.6632424,
              0.0
            ],
            [
              33.3050537,
              -24.6619944,
              0.0
            ]
          ]
        ]
      }
    },
    {
      "type": "Feature",
      "properties": {
        "id": 9
      },
      "geometry": {
        "type": "Polygon",
        "coordinates": [
          [
            [
              33.2789612,
              -24.6582502,
              0.0
            ],
            [
              33.2775879,
              -24.6582502,
              0.0
            ],
            [
              33.2775879,
              -24.6594983,
              0.0
            ],
            [
              33.2789612,
              -24.6594983,
              0.0
            ],
            [
              33.2789612,
              -24.6582502,
              0.0
            ]
          ]
        ]
      }
    },
    {
      "type": "Feature",
      "properties": {
        "id": 10
      },
      "geometry": {
        "type": "Polygon",
        "coordinates": [
          [
            [
              33.2858276,
              -24.6420244,
              0.0
            ],
            [
              33.2858276,
              -24.6432726,
              0.0
            ],
            [
              33.2872009,
              -24.6432726,
              0.0
            ],
            [
              33.2872009,
              -24.6420244,
              0.0
            ],
            [
              33.2872009,
              -24.6407761,
              0.0
            ],
            [
              33.2858276,
              -24.6407761,
              0.0
            ],
            [
              33.2858276,
              -24.6420244,
              0.0
            ]
          ]
        ]
      }
    }
  ]
}