{"type":"FeatureCollection","features":[{"type":"Feature","properties":{"group_id":11854,"task_id":576112,"tile_x":43242,"tile_y":28472,"tile_z":16,"reference":1,"screen":2},"geometry":{"coordinates":[[[57.535400390625,22.9583933180863],[57.5408935546875,22.9583933180863],[57.5408935546875,22.9533351820447],[57.535400390625,22.9533351820447],[57.535400390625,22.9583933180863]]],"type":"Polygon"}},{"type":"Feature","properties":{"group_id":11855,"task_id":576443,"tile_x":43241,"tile_y":28473,"tile_z":16,"reference":1,"screen":1},"geometry":{"coordinates":[[[57.5299072265625,22.9533351820447],[57.535400390625,22.9533351820447],[57.535400390625,22.9482768568809],[57.5299072265625,22.9482768568809],[57.5299072265625,22.9533351820447]]],"type":"Polygon"}},{"type":"Feature","properties":{"group_id":11855,"task_id":576446,"tile_x":43242,"tile_y":28473,"tile_z":16,"reference":1,"screen":2},"geometry":{"coordinates":[[[57.535400390625,22.9533351820447],[57.5408935546875,22.9533351820447],[57.5408935546875,22.9482768568809],[57.535400390625,22.9482768568809],[57.535400390625,22.9533351820447]]],"type":"Polygon"}},{"type":"Feature","properties":{"group_id":11854,"task_id":576109,"tile_x":43241,"tile_y":28472,"tile_z":16,"reference":1,"screen":1},"geometry":{"coordinates":[[[57.5299072265625,22.9583933180863],[57.535400390625,22.9583933180863],[57.535400390625,22.9533351820447],[57.5299072265625,22.9533351820447],[57.5299072265625,22.9583933180863]]],"type":"Polygon"}}]}
