{"type":"FeatureCollection","features":[{"type":"Feature","properties":{"group_id":11845,"task_id":573051,"tile_x":193749,"tile_y":109952,"tile_z":18,"reference":0,"screen":1},"geometry":{"coordinates":[[[86.0737609863281,27.8390760947778],[86.0751342773438,27.8390760947778],[86.0751342773438,27.837861737973],[86.0737609863281,27.837861737973],[86.0737609863281,27.8390760947778]]],"type":"Polygon"}},{"type":"Feature","properties":{"group_id":11845,"task_id":573052,"tile_x":193749,"tile_y":109953,"tile_z":18,"reference":2,"screen":1},"geometry":{"coordinates":[[[86.0737609863281,27.837861737973],[86.0751342773438,27.837861737973],[86.0751342773438,27.8366473675764],[86.0737609863281,27.8366473675764],[86.0737609863281,27.837861737973]]],"type":"Polygon"}},{"type":"Feature","properties":{"group_id":11845,"task_id":573053,"tile_x":193750,"tile_y":109951,"tile_z":18,"reference":0,"screen":1},"geometry":{"coordinates":[[[86.0751342773438,27.8402904379903],[86.0765075683594,27.8402904379903],[86.0765075683594,27.8390760947778],[86.0751342773438,27.8390760947778],[86.0751342773438,27.8402904379903]]],"type":"Polygon"}},{"type":"Feature","properties":{"group_id":11845,"task_id":573054,"tile_x":193750,"tile_y":109952,"tile_z":18,"reference":1,"screen":1},"geometry":{"coordinates":[[[86.0751342773438,27.8390760947778],[86.0765075683594,27.8390760947778],[86.0765075683594,27.837861737973],[86.0751342773438,27.837861737973],[86.0751342773438,27.8390760947778]]],"type":"Polygon"}},{"type":"Feature","properties":{"group_id":11845,"task_id":573055,"tile_x":193750,"tile_y":109953,"tile_z":18,"reference":1,"screen":1},"geometry":{"coordinates":[[[86.0751342773438,27.837861737973],[86.0765075683594,27.837861737973],[86.0765075683594,27.8366473675764],[86.0751342773438,27.8366473675764],[86.0751342773438,27.837861737973]]],"type":"Polygon"}},{"type":"Feature","properties":{"group_id":11845,"task_id":573050,"tile_x":193749,"tile_y":109951,"tile_z":18,"reference":0,"screen":1},"geometry":{"coordinates":[[[86.0737609863281,27.8402904379903],[86.0751342773438,27.8402904379903],[86.0751342773438,27.8390760947778],[86.0737609863281,27.8390760947778],[86.0737609863281,27.8402904379903]]],"type":"Polygon"}},{"type":"Feature","properties":{"group_id":11846,"task_id":573089,"tile_x":193754,"tile_y":109954,"tile_z":18,"reference":0,"screen":2},"geometry":{"coordinates":[[[86.0806274414062,27.8366473675764],[86.0820007324219,27.8366473675764],[86.0820007324219,27.8354329835883],[86.0806274414062,27.8354329835883],[86.0806274414062,27.8366473675764]]],"type":"Polygon"},"id":6},{"type":"Feature","properties":{"group_id":11846,"task_id":573090,"tile_x":193754,"tile_y":109955,"tile_z":18,"reference":0,"screen":2},"geometry":{"coordinates":[[[86.0806274414062,27.8354329835883],[86.0820007324219,27.8354329835883],[86.0820007324219,27.8342185860092],[86.0806274414062,27.8342185860092],[86.0806274414062,27.8354329835883]]],"type":"Polygon"},"id":7},{"type":"Feature","properties":{"group_id":11846,"task_id":573091,"tile_x":193754,"tile_y":109956,"tile_z":18,"reference":0,"screen":2},"geometry":{"coordinates":[[[86.0806274414062,27.8342185860092],[86.0820007324219,27.8342185860092],[86.0820007324219,27.8330041748394],[86.0806274414062,27.8330041748394],[86.0806274414062,27.8342185860092]]],"type":"Polygon"},"id":8},{"type":"Feature","properties":{"group_id":11846,"task_id":573092,"tile_x":193755,"tile_y":109954,"tile_z":18,"reference":3,"screen":2},"geometry":{"coordinates":[[[86.0820007324219,27.8366473675764],[86.0833740234375,27.8366473675764],[86.0833740234375,27.8354329835883],[86.0820007324219,27.8354329835883],[86.0820007324219,27.8366473675764]]],"type":"Polygon"},"id":9},{"type":"Feature","properties":{"group_id":11846,"task_id":573093,"tile_x":193755,"tile_y":109955,"tile_z":18,"reference":1,"screen":2},"geometry":{"coordinates":[[[86.0820007324219,27.8354329835883],[86.0833740234375,27.8354329835883],[86.0833740234375,27.8342185860092],[86.0820007324219,27.8342185860092],[86.0820007324219,27.8354329835883]]],"type":"Polygon"},"id":10},{"type":"Feature","properties":{"group_id":11846,"task_id":573094,"tile_x":193755,"tile_y":109956,"tile_z":18,"reference":0,"screen":2},"geometry":{"coordinates":[[[86.0820007324219,27.8342185860092],[86.0833740234375,27.8342185860092],[86.0833740234375,27.8330041748394],[86.0820007324219,27.8330041748394],[86.0820007324219,27.8342185860092]]],"type":"Polygon"},"id":11}]}
