{
  "type": "FeatureCollection",
  "features": [
    {
      "type": "Feature",
      "geometry": {
        "type": "Polygon",
        "coordinates": [
          [
            [
              85.314331,
              27.678664
            ],
            [
              85.314331,
              27.677447
            ],
            [
              85.315704,
              27.677447
            ],
            [
              85.315704,
              27.678664
            ],
            [
              85.314331,
              27.678664
            ]
          ]
        ]
      },
      "properties": {
        "group_id": 11,
        "task_id": 322,
        "tile_x": 193196,
        "tile_y": 110084,
        "tile_z": 18,
        "screen": 1,
        "references": [
          1,
          0,
          0,
          0,
          0,
          0,
          1,
          1,
          0,
          0,
          0,
          0,
          0,
          0,
          0,
          1
        ]
      },
      "id": 0
    }
  ]
}
